NORAD_CAT_ID,OBJECT_NAME,OBJECT_TYPE,EPOCH,MEAN_MOTION,ECCENTRICITY,INCLINATION,RA_OF_ASC_NODE,ARG_OF_PERICENTER,MEAN_ANOMALY,BSTAR,MEAN_MOTION_DOT,MEAN_MOTION_DDOT,TLE_LINE0,TLE_LINE1,TLE_LINE2,SEMIMAJOR_AXIS,PERIOD,APOGEE,PERIGEE,DECAYED
55952.0,STARLINK-5893,PAYLOAD,2023-10-08 14:00:01,14.99309018,0.0003149,70.0004,331.2788,275.6732,218.7772,-0.00071903,-8.883e-05,0.0,0 STARLINK-5893,1 55952U 23037AQ  23281.58334491 -.00008883  00000-0 -71903-3 0  9996,2 55952  70.0004 331.2788 0003149 275.6732 218.7772 14.99309018  5957,6947.167,96.044,571.22,566.844,0.0
55952.0,STARLINK-5893,PAYLOAD,2023-10-08 22:00:00,14.99278908,0.0003107,70.0005,330.4371,269.5257,223.5897,0.0039234,0.00048217,0.0,0 STARLINK-5893,1 55952U 23037AQ  23281.91667824  .00048217  00000-0  39234-2 0  9995,2 55952  70.0005 330.4371 0003107 269.5257 223.5897 14.99278908  5792,6947.26,96.046,571.284,566.967,0.0
55952.0,STARLINK-5893,PAYLOAD,2023-10-09 00:00:00,14.99268223,0.000312,70.0004,330.2267,268.3373,314.4413,0.0070956,0.00087748,0.0,0 STARLINK-5893,1 55952U 23037AQ  23282.00001157  .00087748  00000-0  70956-2 0  9995,2 55952  70.0004 330.2267 0003120 268.3373 314.4413 14.99268223 32595,6947.293,96.047,571.326,566.99,0.0
55952.0,STARLINK-5893,PAYLOAD,2023-10-09 07:00:57,14.99306205,0.0002605,70.0002,329.491,273.5924,86.4937,4.1164e-05,4.1e-06,0.0,0 STARLINK-5893,1 55952U 23037AQ  23282.29233017  .00000410  00000-0  41164-4 0  9990,2 55952  70.0002 329.4910 0002605 273.5924  86.4937 14.99306205 32630,6947.176,96.044,570.85,567.231,0.0
55952.0,STARLINK-5893,PAYLOAD,2023-10-09 13:25:14,14.99304448,0.0002408,69.9997,328.816,267.7129,92.3755,4.7366e-05,4.86e-06,0.0,0 STARLINK-5893,1 55952U 23037AQ  23282.55919718  .00000486  00000-0  47366-4 0  9991,2 55952  69.9997 328.8160 0002408 267.7129  92.3755 14.99304448 32331,6947.181,96.045,570.719,567.373,0.0
55952.0,STARLINK-5893,PAYLOAD,2023-10-10 10:14:10,14.99309612,0.0002467,69.9994,326.6258,268.5032,91.5845,-7.6963e-05,-1.036e-05,0.0,0 STARLINK-5893,1 55952U 23037AQ  23283.42650963 -.00001036  00000-0 -76963-4 0  9991,2 55952  69.9994 326.6258 0002467 268.5032  91.5845 14.99309612 32800,6947.165,96.044,570.744,567.316,0.0
55952.0,STARLINK-5893,PAYLOAD,2023-10-10 13:26:18,14.99312634,0.0002574,69.9992,326.289,268.8304,91.2561,-8.6544e-05,-1.153e-05,0.0,0 STARLINK-5893,1 55952U 23037AQ  23283.55994041 -.00001153  00000-0 -86544-4 0  9999,2 55952  69.9992 326.2890 0002574 268.8304  91.2561 14.99312634 32484,6947.156,96.044,570.809,567.233,0.0
55952.0,STARLINK-5893,PAYLOAD,2023-10-11 02:14:54,14.99298922,0.0002476,69.9994,324.9414,268.3392,91.7484,-7.3182e-05,-9.89e-06,0.0,0 STARLINK-5893,1 55952U 23037AQ  23284.09368117 -.00000989  00000-0 -73182-4 0  9998,2 55952  69.9994 324.9414 0002476 268.3392  91.7484 14.99298922 32905,6947.198,96.045,570.783,567.343,0.0
55952.0,STARLINK-5893,PAYLOAD,2023-10-11 11:51:20,14.99296717,0.0002513,69.9992,323.93,271.1456,88.9416,-8.877e-05,-1.18e-05,0.0,0 STARLINK-5893,1 55952U 23037AQ  23284.49398450 -.00001180  00000-0 -88770-4 0  9998,2 55952  69.9992 323.9300 0002513 271.1456  88.9416 14.99296717 32623,6947.205,96.045,570.816,567.324,0.0
55952.0,STARLINK-5893,PAYLOAD,2023-10-12 03:52:03,14.99300126,0.0002672,69.9981,322.2436,266.5262,93.5592,3.4409e-06,-5.2e-07,0.0,0 STARLINK-5893,1 55952U 23037AQ  23285.16114729 -.00000052  00000-0  34409-5 0  9995,2 55952  69.9981 322.2436 0002672 266.5262  93.5592 14.99300126 33068,6947.194,96.045,570.916,567.203,0.0
55952.0,STARLINK-5893,PAYLOAD,2023-10-12 11:52:24,14.99301922,0.0002635,69.9982,321.4014,266.2541,93.8317,2.6765e-05,2.34e-06,0.0,0 STARLINK-5893,1 55952U 23037AQ  23285.49472937  .00000234  00000-0  26765-4 0  9995,2 55952  69.9982 321.4014 0002635 266.2541  93.8317 14.99301922 32778,6947.189,96.045,570.885,567.223,0.0
55952.0,STARLINK-5893,PAYLOAD,2023-10-12 19:52:46,14.99301573,0.000254,69.9982,320.5586,280.2085,79.8788,-8.2224e-05,-1.1e-05,0.0,0 STARLINK-5893,1 55952U 23037AQ  23285.82831749 -.00001100  00000-0 -82224-4 0  9999,2 55952  69.9982 320.5586 0002540 280.2085  79.8788 14.99301573 32820,6947.19,96.045,570.82,567.29,0.0
55952.0,STARLINK-5893,PAYLOAD,2023-10-13 03:53:08,14.99294898,0.0002847,69.9979,319.7163,269.902,90.1814,2.4088e-05,2.01e-06,0.0,0 STARLINK-5893,1 55952U 23037AQ  23286.16190235  .00000201  00000-0  24088-4 0  9998,2 55952  69.9979 319.7163 0002847 269.9020  90.1814 14.99294898 33211,6947.211,96.045,571.053,567.098,0.0
55952.0,STARLINK-5893,PAYLOAD,2023-10-13 11:53:29,14.992985,0.0002636,69.9981,318.8736,265.5633,94.5225,7.8658e-05,8.69e-06,0.0,0 STARLINK-5893,1 55952U 23037AQ  23286.49548300  .00000869  00000-0  78658-4 0  9996,2 55952  69.9981 318.8736 0002636 265.5633  94.5225 14.99298500 32923,6947.199,96.045,570.896,567.233,0.0
55952.0,STARLINK-5893,PAYLOAD,2023-10-14 03:54:12,14.99298499,0.0003166,69.9979,317.1888,267.7906,92.2891,0.00013614,1.572e-05,0.0,0 STARLINK-5893,1 55952U 23037AQ  23287.16264744  .00001572  00000-0  13614-3 0  9990,2 55952  69.9979 317.1888 0003166 267.7906  92.2891 14.99298499 33366,6947.2,96.045,571.264,566.865,0.0
55952.0,STARLINK-5893,PAYLOAD,2023-10-14 10:18:29,14.99308148,0.0002671,69.998,316.5159,264.6932,95.3923,5.8572e-05,6.23e-06,0.0,0 STARLINK-5893,1 55952U 23037AQ  23287.42951069  .00000623  00000-0  58572-4 0  9991,2 55952  69.9980 316.5159 0002671 264.6932  95.3923 14.99308148 33405,6947.17,96.044,570.89,567.179,0.0
55952.0,STARLINK-5893,PAYLOAD,2023-10-14 11:54:34,14.99305003,0.0003005,69.9981,316.3473,267.351,92.7305,0.0001388,1.605e-05,0.0,0 STARLINK-5893,1 55952U 23037AQ  23287.49622690  .00001605  00000-0  13880-3 0  9996,2 55952  69.9981 316.3473 0003005 267.3510  92.7305 14.99305003 33072,6947.179,96.045,571.132,566.957,0.0
55952.0,STARLINK-5893,PAYLOAD,2023-10-14 19:54:54,14.9937129,0.0002495,69.9999,315.5045,263.9172,96.1704,-0.0012839,-0.00015797,0.0,0 STARLINK-5893,1 55952U 23037AQ  23287.82980051 -.00015797  00000-0 -12839-2 0  9992,2 55952  69.9999 315.5045 0002495 263.9172  96.1704 14.99371290 33460,6946.975,96.04,570.573,567.106,0.0
55952.0,STARLINK-5893,PAYLOAD,2023-10-15 03:55:18,14.99291763,0.0002874,69.9978,314.6608,265.9351,94.148,-5.827e-05,-8.07e-06,0.0,0 STARLINK-5893,1 55952U 23037AQ  23288.16340856 -.00000807  00000-0 -58270-4 0  9990,2 55952  69.9978 314.6608 0002874 265.9351  94.1480 14.99291763 33515,6947.22,96.045,571.082,567.089,0.0
55952.0,STARLINK-5893,PAYLOAD,2023-10-15 11:55:40,14.99291654,0.0002704,69.9984,313.8191,264.817,95.2681,-5.8826e-05,-8.13e-06,0.0,0 STARLINK-5893,1 55952U 23037AQ  23288.49699427 -.00000813  00000-0 -58826-4 0  9991,2 55952  69.9984 313.8191 0002704 264.8170  95.2681 14.99291654 33221,6947.221,96.045,570.964,567.207,0.0
55952.0,STARLINK-5893,PAYLOAD,2023-10-16 08:44:37,14.99280753,0.0002635,69.9992,311.6293,267.8573,92.2285,-4.0787e-05,-5.93e-06,0.0,0 STARLINK-5893,1 55952U 23037AQ  23289.36431817 -.00000593  00000-0 -40787-4 0  9997,2 55952  69.9992 311.6293 0002635 267.8573  92.2285 14.99280753 33698,6947.254,96.046,570.95,567.289,0.0
55952.0,STARLINK-5893,PAYLOAD,2023-10-16 11:56:48,14.99245991,0.0002711,69.999,311.2924,261.8391,98.2461,-0.00050573,-6.267e-05,0.0,0 STARLINK-5893,1 55952U 23037AQ  23289.49778331 -.00006267  00000-0 -50573-3 0  9993,2 55952  69.9990 311.2924 0002711 261.8391  98.2461 14.99245991 33710,6947.362,96.048,571.11,567.343,0.0
55952.0,STARLINK-5893,PAYLOAD,2023-10-17 11:57:50,14.99301137,0.0002738,69.9997,308.765,274.7702,85.3145,-0.00032021,-4.01e-05,0.0,0 STARLINK-5893,1 55952U 23037AQ  23290.49849735 -.00004010  00000-0 -32021-3 0  9994,2 55952  69.9997 308.7650 0002738 274.7702  85.3145 14.99301137 33869,6947.191,96.045,570.958,567.154,0.0
55952.0,STARLINK-5893,PAYLOAD,2023-10-18 02:22:28,14.99293824,0.0002646,69.9998,307.2493,259.5713,100.5149,0.00012509,1.437e-05,0.0,0 STARLINK-5893,1 55952U 23037AQ  23291.09894224  .00001437  00000-0  12509-3 0  9991,2 55952  69.9998 307.2493 0002646 259.5713 100.5149 14.99293824 33610,6947.214,96.045,570.917,567.241,0.0
55952.0,STARLINK-5893,PAYLOAD,2023-10-18 10:22:50,14.9930166,0.0002627,69.9996,306.4074,259.4522,100.6342,-4.8974e-05,-6.93e-06,0.0,0 STARLINK-5893,1 55952U 23037AQ  23291.43252702 -.00000693  00000-0 -48974-4 0  9999,2 55952  69.9996 306.4074 0002627 259.4522 100.6342 14.99301660 34008,6947.19,96.045,570.88,567.23,0.0
55952.0,STARLINK-5893,PAYLOAD,2023-10-19 10:23:54,14.99303351,0.0002916,69.9989,303.8791,271.8135,88.2691,1.8538e-05,1.33e-06,0.0,0 STARLINK-5893,1 55952U 23037AQ  23292.43327444  .00000133  00000-0  18538-4 0  9996,2 55952  69.9989 303.8791 0002916 271.8135  88.2691 14.99303351 34159,6947.185,96.045,571.075,567.024,0.0
55952.0,STARLINK-5893,PAYLOAD,2023-10-20 04:00:43,14.99296173,0.0002893,69.9987,302.0258,266.6996,93.3832,-3.1623e-05,-4.81e-06,0.0,0 STARLINK-5893,1 55952U 23037AQ  23293.16716504 -.00000481  00000-0 -31623-4 0  9994,2 55952  69.9987 302.0258 0002893 266.6996  93.3832 14.99296173 34266,6947.207,96.045,571.082,567.062,0.0
55952.0,STARLINK-5893,PAYLOAD,2023-10-20 10:25:00,14.99298485,0.0002863,69.9989,301.3525,261.3387,98.7448,-8.9255e-06,-2.03e-06,0.0,0 STARLINK-5893,1 55952U 23037AQ  23293.43403018 -.00000203  00000-0 -89255-5 0  9994,2 55952  69.9989 301.3525 0002863 261.3387  98.7448 14.99298485 33966,6947.2,96.045,571.054,567.076,0.0
55952.0,STARLINK-5893,PAYLOAD,2023-10-21 10:26:05,14.99297254,0.0002611,69.9995,298.8251,260.8921,99.1943,2.4319e-05,2.04e-06,0.0,0 STARLINK-5893,1 55952U 23037AQ  23294.43478352  .00000204  00000-0  24319-4 0  9996,2 55952  69.9995 298.8251 0002611 260.8921  99.1943 14.99297254 34451,6947.203,96.045,570.882,567.254,0.0
55952.0,STARLINK-5893,PAYLOAD,2023-10-22 04:02:51,14.99313531,0.0002793,70.0007,296.9733,215.5652,144.5321,0.0002243,2.653e-05,0.0,0 STARLINK-5893,1 55952U 23037AQ  23295.16865140  .00002653  00000-0  22430-3 0  9993,2 55952  70.0007 296.9733 0002793 215.5652 144.5321 14.99313531 34565,6947.153,96.044,570.958,567.078,0.0
